STARLINK-36734          
1 67988U 26039C   26065.83334490 -.01600497  72175-3 -44377-2 0  9992
2 67988  42.9978  72.5890 0001838 264.7737 354.0550 15.92979917  2414
STARLINK-36957          
1 67989U 26039D   26065.83334490 -.01592159  71589-3 -43796-2 0  9990
2 67989  42.9976  72.5833 0001857 263.4190 357.5137 15.93129795  2411
STARLINK-36951          
1 67990U 26039E   26065.58334491 -.01469209  62269-3 -38633-2 0  9993
2 67990  42.9976  74.1375 0001880 268.7953 358.5823 15.93961204  2370
STARLINK-36941          
1 67991U 26039F   26065.83334490 -.01571846  70119-3 -42569-2 0  9998
2 67991  42.9976  72.5721 0001835 262.8730   2.4318 15.93421675  2418
STARLINK-36950          
1 67992U 26039G   26065.83334490 -.01567697  69879-3 -42131-2 0  9994
2 67992  42.9977  72.5663 0001828 263.6799   3.9918 15.93566365  2419
STARLINK-36975          
1 67993U 26039H   26065.83334490 -.01583045  71252-3 -42202-2 0  9997
2 67993  42.9975  72.5606 0001845 265.4248   4.4741 15.93720631  2411
STARLINK-36993          
1 67994U 26039J   26065.83334490 -.01566146  69954-3 -41442-2 0  9992
2 67994  42.9976  72.5548 0001861 263.7721   8.5583 15.93857901  2413
STARLINK-36968          
1 67995U 26039K   26065.83334490 -.01613815  74123-3 -42108-2 0  9993
2 67995  42.9976  72.5393 0001903 263.8089  14.5400 15.94128344  2415
STARLINK-36979          
1 67996U 26039L   26065.83334490 -.01622505  74754-3 -42658-2 0  9990
2 67996  42.9974  72.5449 0001885 263.8761  12.2003 15.93986988  2411
STARLINK-36994          
1 67997U 26039M   26065.83334490 -.01625500  75332-3 -41769-2 0  9994
2 67997  42.9976  72.5266 0001772 261.3805  21.9142 15.94416815  2417
STARLINK-36988          
1 67998U 26039N   26065.83334490 -.01647673  77135-3 -42646-2 0  9998
2 67998  42.9977  72.5325 0001902 261.3289  19.6619 15.94284744  2413
STARLINK-36926          
1 67999U 26039P   26065.83334490 -.01625978  75481-3 -41463-2 0  9991
2 67999  42.9976  72.5209 0001825 261.9174  23.7770 15.94559467  2418
STARLINK-36931          
1 68000U 26039Q   26065.83334490 -.01617547  74866-3 -40939-2 0  9991
2 68000  42.9978  72.5159 0001855 261.5516  26.0704 15.94698313  2414
STARLINK-36903          
1 68001U 26039R   26065.83334490 -.01626676  75754-3 -40862-2 0  9997
2 68001  42.9979  72.5097 0001914 261.3978  28.6837 15.94839318  2410
STARLINK-36898          
1 68002U 26039S   26065.83334490 -.01629709  76229-3 -40331-2 0  9997
2 68002  42.9977  72.4978 0001964 263.0539  31.6585 15.95116879  2418
STARLINK-36862          
1 68003U 26039T   26065.83334490 -.01639527  77297-3 -39970-2 0  9990
2 68003  42.9977  72.4868 0001926 264.2523  34.7723 15.95395781  2410
