[{"OBJECT_NAME":"STARLINK-36734","OBJECT_ID":"2026-039C","EPOCH":"2026-03-06T20:00:00.999360","MEAN_MOTION":15.92979917,"ECCENTRICITY":0.0001838,"INCLINATION":42.9978,"RA_OF_ASC_NODE":72.589,"ARG_OF_PERICENTER":264.7737,"MEAN_ANOMALY":354.055,"EPHEMERIS_TYPE":0,"CLASSIFICATION_TYPE":"U","NORAD_CAT_ID":67988,"ELEMENT_SET_NO":999,"REV_AT_EPOCH":241,"BSTAR":-0.0044377,"MEAN_MOTION_DOT":-0.01600497,"MEAN_MOTION_DDOT":0.00072175},{"OBJECT_NAME":"STARLINK-36957","OBJECT_ID":"2026-039D","EPOCH":"2026-03-06T20:00:00.999360","MEAN_MOTION":15.93129795,"ECCENTRICITY":0.0001857,"INCLINATION":42.9976,"RA_OF_ASC_NODE":72.5833,"ARG_OF_PERICENTER":263.419,"MEAN_ANOMALY":357.5137,"EPHEMERIS_TYPE":0,"CLASSIFICATION_TYPE":"U","NORAD_CAT_ID":67989,"ELEMENT_SET_NO":999,"REV_AT_EPOCH":241,"BSTAR":-0.0043796,"MEAN_MOTION_DOT":-0.01592159,"MEAN_MOTION_DDOT":0.00071589},{"OBJECT_NAME":"STARLINK-36951","OBJECT_ID":"2026-039E","EPOCH":"2026-03-06T14:00:01.000224","MEAN_MOTION":15.93961204,"ECCENTRICITY":0.00018806,"INCLINATION":42.9976,"RA_OF_ASC_NODE":74.1375,"ARG_OF_PERICENTER":268.7953,"MEAN_ANOMALY":358.5823,"EPHEMERIS_TYPE":0,"CLASSIFICATION_TYPE":"U","NORAD_CAT_ID":67990,"ELEMENT_SET_NO":999,"REV_AT_EPOCH":237,"BSTAR":-0.0038633216,"MEAN_MOTION_DOT":-0.01469209,"MEAN_MOTION_DDOT":0.00062268696},{"OBJECT_NAME":"STARLINK-36941","OBJECT_ID":"2026-039F","EPOCH":"2026-03-06T20:00:00.999360","MEAN_MOTION":15.93421675,"ECCENTRICITY":0.0001835,"INCLINATION":42.9976,"RA_OF_ASC_NODE":72.5721,"ARG_OF_PERICENTER":262.873,"MEAN_ANOMALY":2.4318,"EPHEMERIS_TYPE":0,"CLASSIFICATION_TYPE":"U","NORAD_CAT_ID":67991,"ELEMENT_SET_NO":999,"REV_AT_EPOCH":241,"BSTAR":-0.0042569,"MEAN_MOTION_DOT":-0.01571846,"MEAN_MOTION_DDOT":0.00070119},{"OBJECT_NAME":"STARLINK-36950","OBJECT_ID":"2026-039G","EPOCH":"2026-03-06T20:00:00.999360","MEAN_MOTION":15.93566365,"ECCENTRICITY":0.0001828,"INCLINATION":42.9977,"RA_OF_ASC_NODE":72.5663,"ARG_OF_PERICENTER":263.6799,"MEAN_ANOMALY":3.9918,"EPHEMERIS_TYPE":0,"CLASSIFICATION_TYPE":"U","NORAD_CAT_ID":67992,"ELEMENT_SET_NO":999,"REV_AT_EPOCH":241,"BSTAR":-0.0042131,"MEAN_MOTION_DOT":-0.01567697,"MEAN_MOTION_DDOT":0.00069879},{"OBJECT_NAME":"STARLINK-36975","OBJECT_ID":"2026-039H","EPOCH":"2026-03-06T20:00:00.999360","MEAN_MOTION":15.93720631,"ECCENTRICITY":0.0001845,"INCLINATION":42.9975,"RA_OF_ASC_NODE":72.5606,"ARG_OF_PERICENTER":265.4248,"MEAN_ANOMALY":4.4741,"EPHEMERIS_TYPE":0,"CLASSIFICATION_TYPE":"U","NORAD_CAT_ID":67993,"ELEMENT_SET_NO":999,"REV_AT_EPOCH":241,"BSTAR":-0.0042202,"MEAN_MOTION_DOT":-0.01583045,"MEAN_MOTION_DDOT":0.00071252},{"OBJECT_NAME":"STARLINK-36993","OBJECT_ID":"2026-039J","EPOCH":"2026-03-06T20:00:00.999360","MEAN_MOTION":15.93857901,"ECCENTRICITY":0.0001861,"INCLINATION":42.9976,"RA_OF_ASC_NODE":72.5548,"ARG_OF_PERICENTER":263.7721,"MEAN_ANOMALY":8.5583,"EPHEMERIS_TYPE":0,"CLASSIFICATION_TYPE":"U","NORAD_CAT_ID":67994,"ELEMENT_SET_NO":999,"REV_AT_EPOCH":241,"BSTAR":-0.0041442,"MEAN_MOTION_DOT":-0.01566146,"MEAN_MOTION_DDOT":0.00069954},{"OBJECT_NAME":"STARLINK-36968","OBJECT_ID":"2026-039K","EPOCH":"2026-03-06T20:00:00.999360","MEAN_MOTION":15.94128344,"ECCENTRICITY":0.0001903,"INCLINATION":42.9976,"RA_OF_ASC_NODE":72.5393,"ARG_OF_PERICENTER":263.8089,"MEAN_ANOMALY":14.54,"EPHEMERIS_TYPE":0,"CLASSIFICATION_TYPE":"U","NORAD_CAT_ID":67995,"ELEMENT_SET_NO":999,"REV_AT_EPOCH":241,"BSTAR":-0.0042108,"MEAN_MOTION_DOT":-0.01613815,"MEAN_MOTION_DDOT":0.00074123},{"OBJECT_NAME":"STARLINK-36979","OBJECT_ID":"2026-039L","EPOCH":"2026-03-06T20:00:00.999360","MEAN_MOTION":15.93986988,"ECCENTRICITY":0.0001885,"INCLINATION":42.9974,"RA_OF_ASC_NODE":72.5449,"ARG_OF_PERICENTER":263.8761,"MEAN_ANOMALY":12.2003,"EPHEMERIS_TYPE":0,"CLASSIFICATION_TYPE":"U","NORAD_CAT_ID":67996,"ELEMENT_SET_NO":999,"REV_AT_EPOCH":241,"BSTAR":-0.0042658,"MEAN_MOTION_DOT":-0.01622505,"MEAN_MOTION_DDOT":0.00074754},{"OBJECT_NAME":"STARLINK-36994","OBJECT_ID":"2026-039M","EPOCH":"2026-03-06T20:00:00.999360","MEAN_MOTION":15.94416815,"ECCENTRICITY":0.0001772,"INCLINATION":42.9976,"RA_OF_ASC_NODE":72.5266,"ARG_OF_PERICENTER":261.3805,"MEAN_ANOMALY":21.9142,"EPHEMERIS_TYPE":0,"CLASSIFICATION_TYPE":"U","NORAD_CAT_ID":67997,"ELEMENT_SET_NO":999,"REV_AT_EPOCH":241,"BSTAR":-0.0041769,"MEAN_MOTION_DOT":-0.016255,"MEAN_MOTION_DDOT":0.00075332},{"OBJECT_NAME":"STARLINK-36988","OBJECT_ID":"2026-039N","EPOCH":"2026-03-06T20:00:00.999360","MEAN_MOTION":15.94284744,"ECCENTRICITY":0.0001902,"INCLINATION":42.9977,"RA_OF_ASC_NODE":72.5325,"ARG_OF_PERICENTER":261.3289,"MEAN_ANOMALY":19.6619,"EPHEMERIS_TYPE":0,"CLASSIFICATION_TYPE":"U","NORAD_CAT_ID":67998,"ELEMENT_SET_NO":999,"REV_AT_EPOCH":241,"BSTAR":-0.0042646,"MEAN_MOTION_DOT":-0.01647673,"MEAN_MOTION_DDOT":0.00077135},{"OBJECT_NAME":"STARLINK-36926","OBJECT_ID":"2026-039P","EPOCH":"2026-03-06T20:00:00.999360","MEAN_MOTION":15.94559467,"ECCENTRICITY":0.0001825,"INCLINATION":42.9976,"RA_OF_ASC_NODE":72.5209,"ARG_OF_PERICENTER":261.9174,"MEAN_ANOMALY":23.777,"EPHEMERIS_TYPE":0,"CLASSIFICATION_TYPE":"U","NORAD_CAT_ID":67999,"ELEMENT_SET_NO":999,"REV_AT_EPOCH":241,"BSTAR":-0.0041463,"MEAN_MOTION_DOT":-0.01625978,"MEAN_MOTION_DDOT":0.00075481},{"OBJECT_NAME":"STARLINK-36931","OBJECT_ID":"2026-039Q","EPOCH":"2026-03-06T20:00:00.999360","MEAN_MOTION":15.94698313,"ECCENTRICITY":0.0001855,"INCLINATION":42.9978,"RA_OF_ASC_NODE":72.5159,"ARG_OF_PERICENTER":261.5516,"MEAN_ANOMALY":26.0704,"EPHEMERIS_TYPE":0,"CLASSIFICATION_TYPE":"U","NORAD_CAT_ID":68000,"ELEMENT_SET_NO":999,"REV_AT_EPOCH":241,"BSTAR":-0.0040939,"MEAN_MOTION_DOT":-0.01617547,"MEAN_MOTION_DDOT":0.00074866},{"OBJECT_NAME":"STARLINK-36903","OBJECT_ID":"2026-039R","EPOCH":"2026-03-06T20:00:00.999360","MEAN_MOTION":15.94839318,"ECCENTRICITY":0.0001914,"INCLINATION":42.9979,"RA_OF_ASC_NODE":72.5097,"ARG_OF_PERICENTER":261.3978,"MEAN_ANOMALY":28.6837,"EPHEMERIS_TYPE":0,"CLASSIFICATION_TYPE":"U","NORAD_CAT_ID":68001,"ELEMENT_SET_NO":999,"REV_AT_EPOCH":241,"BSTAR":-0.0040862,"MEAN_MOTION_DOT":-0.01626676,"MEAN_MOTION_DDOT":0.00075754},{"OBJECT_NAME":"STARLINK-36898","OBJECT_ID":"2026-039S","EPOCH":"2026-03-06T20:00:00.999360","MEAN_MOTION":15.95116879,"ECCENTRICITY":0.0001964,"INCLINATION":42.9977,"RA_OF_ASC_NODE":72.4978,"ARG_OF_PERICENTER":263.0539,"MEAN_ANOMALY":31.6585,"EPHEMERIS_TYPE":0,"CLASSIFICATION_TYPE":"U","NORAD_CAT_ID":68002,"ELEMENT_SET_NO":999,"REV_AT_EPOCH":241,"BSTAR":-0.0040331,"MEAN_MOTION_DOT":-0.01629709,"MEAN_MOTION_DDOT":0.00076229},{"OBJECT_NAME":"STARLINK-36862","OBJECT_ID":"2026-039T","EPOCH":"2026-03-06T20:00:00.999360","MEAN_MOTION":15.95395781,"ECCENTRICITY":0.0001926,"INCLINATION":42.9977,"RA_OF_ASC_NODE":72.4868,"ARG_OF_PERICENTER":264.2523,"MEAN_ANOMALY":34.7723,"EPHEMERIS_TYPE":0,"CLASSIFICATION_TYPE":"U","NORAD_CAT_ID":68003,"ELEMENT_SET_NO":999,"REV_AT_EPOCH":241,"BSTAR":-0.003997,"MEAN_MOTION_DOT":-0.01639527,"MEAN_MOTION_DDOT":0.00077297}]
